NORAD_CAT_ID,OBJECT_NAME,OBJECT_TYPE,EPOCH,MEAN_MOTION,ECCENTRICITY,INCLINATION,RA_OF_ASC_NODE,ARG_OF_PERICENTER,MEAN_ANOMALY,BSTAR,MEAN_MOTION_DOT,MEAN_MOTION_DDOT,TLE_LINE0,TLE_LINE1,TLE_LINE2,SEMIMAJOR_AXIS,PERIOD,APOGEE,PERIGEE,DECAYED
51151.0,STARLINK-3361,PAYLOAD,2022-09-04 04:38:57,15.08847785,0.0001588999999999,53.2169,306.4589,56.0553,304.059,0.00010628,1.404e-05,0.0,0 STARLINK-3361,1 51151U 22005AZ  22247.19372025  .00001404  00000-0  10628-3 0  9997,2 51151  53.2169 306.4589 0001589  56.0553 304.0590 15.08847785 36095,6917.857,95.437,540.821,538.622,0.0
51151.0,STARLINK-3361,PAYLOAD,2022-09-04 11:00:29,15.08852945,0.0001571999999999,53.2169,305.2693,55.3092,304.8048,0.00014227,1.978e-05,0.0,0 STARLINK-3361,1 51151U 22005AZ  22247.45867508  .00001978  00000-0  14227-3 0  9996,2 51151  53.2169 305.2693 0001572  55.3092 304.8048 15.08852945 35022,6917.840999999999,95.437,540.793,538.618,0.0
51151.0,STARLINK-3361,PAYLOAD,2022-09-05 10:51:16,15.08846464,0.0001608,53.2163,300.8086,54.813,305.3013,8.5296e-05,1.07e-05,0.0,0 STARLINK-3361,1 51151U 22005AZ  22248.45227741  .00001070  00000-0  85296-4 0  9994,2 51151  53.2163 300.8086 0001608  54.8130 305.3013 15.08846464 35173,6917.861,95.437,540.8380000000002,538.613,0.0
51151.0,STARLINK-3361,PAYLOAD,2022-09-06 04:20:31,15.08836507,0.000143,53.216,297.5377,54.7829,305.3297,-0.00016332,-2.886e-05,0.0,0 STARLINK-3361,1 51151U 22005AZ  22249.18091697 -.00002886  00000-0 -16332-3 0  9996,2 51151  53.2160 297.5377 0001430  54.7829 305.3297 15.08836507 36398,6917.891,95.438,540.745,538.7669999999998,0.0
51151.0,STARLINK-3361,PAYLOAD,2022-09-06 09:06:41,15.08816683,0.0001625,53.2159,296.6463,53.4349,306.6793,-0.00051587,-8.483e-05,0.0,0 STARLINK-3361,1 51151U 22005AZ  22249.37964561 -.00008483  00000-0 -51587-3 0  9996,2 51151  53.2159 296.6463 0001625  53.4349 306.6793 15.08816683 36423,6917.9519999999975,95.439,540.941,538.692,0.0
51151.0,STARLINK-3361,PAYLOAD,2022-09-06 12:17:27,15.08820133,0.0001691,53.2161,296.0511,51.0273,309.087,-0.00036861,-6.147e-05,0.0,0 STARLINK-3361,1 51151U 22005AZ  22249.51212900 -.00006147  00000-0 -36861-3 0  9998,2 51151  53.2161 296.0511 0001691  51.0273 309.0870 15.08820133 35334,6917.941,95.439,540.976,538.636,0.0
51151.0,STARLINK-3361,PAYLOAD,2022-09-07 01:00:33,15.08820187,0.0001517,53.2159,293.6713,59.5167,300.5974,-0.00016136,-2.854e-05,0.0,0 STARLINK-3361,1 51151U 22005AZ  22250.04205556 -.00002854  00000-0 -16136-3 0  9991,2 51151  53.2159 293.6713 0001517  59.5167 300.5974 15.08820187 36522,6917.941,95.439,540.855,538.756,0.0
51151.0,STARLINK-3361,PAYLOAD,2022-09-07 12:08:16,15.08822608,0.0001647,53.2155,291.5908,54.9511,305.1636,9.2087e-05,1.177e-05,0.0,0 STARLINK-3361,1 51151U 22005AZ  22250.50574311  .00001177  00000-0  92087-4 0  9995,2 51151  53.2155 291.5908 0001647  54.9511 305.1636 15.08822608 35487,6917.934,95.439,540.938,538.659,0.0
51151.0,STARLINK-3361,PAYLOAD,2022-09-08 02:26:45,15.08828488,0.0001610999999999,53.2152,288.9142,56.22,303.8946,0.00042944,6.551e-05,0.0,0 STARLINK-3361,1 51151U 22005AZ  22251.10191038  .00006551  00000-0  42944-3 0  9990,2 51151  53.2152 288.9142 0001611  56.2200 303.8946 15.08828488 36689,6917.916,95.438,540.895,538.6659999999998,0.0
51151.0,STARLINK-3361,PAYLOAD,2022-09-08 08:48:17,15.08832621,0.0001636,53.215,287.7248,56.1487,303.9661,0.00050242,7.715e-05,0.0,0 STARLINK-3361,1 51151U 22005AZ  22251.36687241  .00007715  00000-0  50242-3 0  9997,2 51151  53.2150 287.7248 0001636  56.1487 303.9661 15.08832621 35615,6917.903,95.438,540.9,538.636,0.0
51151.0,STARLINK-3361,PAYLOAD,2022-09-08 19:55:59,15.08842117,0.0001715,53.2149,285.6433,54.476000000000006,305.6392,0.00053875,8.297e-05,0.0,0 STARLINK-3361,1 51151U 22005AZ  22251.83055226  .00008297  00000-0  53875-3 0  9992,2 51151  53.2149 285.6433 0001715  54.4760 305.6392 15.08842117 35687,6917.874,95.437,540.925,538.553,0.0
51151.0,STARLINK-3361,PAYLOAD,2022-09-09 11:49:50,15.08855979,0.0001771,53.2149,282.6695,54.0876,306.028,0.00058794,9.085e-05,0.0,0 STARLINK-3361,1 51151U 22005AZ  22252.49294701  .00009085  00000-0  58794-3 0  9999,2 51151  53.2149 282.6695 0001771  54.0876 306.0280 15.08855979 35782,6917.831999999999,95.437,540.922,538.471,0.0
51151.0,STARLINK-3361,PAYLOAD,2022-09-10 08:29:50,15.0885019,0.0001791,53.215,278.8035,53.6696,306.4461,0.00011053,1.472e-05,0.0,0 STARLINK-3361,1 51151U 22005AZ  22253.35406088  .00001472  00000-0  11053-3 0  9997,2 51151  53.2150 278.8035 0001791  53.6696 306.4461 15.08850190 37020,6917.849,95.437,540.953,538.475,0.0
51151.0,STARLINK-3361,PAYLOAD,2022-09-10 11:40:37,15.0885042,0.0001794,53.2151,278.2086,54.1908,305.9251,0.0001406999999999,1.952e-05,0.0,0 STARLINK-3361,1 51151U 22005AZ  22253.48654028  .00001952  00000-0  14070-3 0  9995,2 51151  53.2151 278.2086 0001794  54.1908 305.9251 15.08850420 35931,6917.849,95.437,540.955,538.472,0.0
51151.0,STARLINK-3361,PAYLOAD,2022-09-11 08:20:37,15.08843904,0.0001848,53.2149,274.3432,46.8987,313.2159,-7.647100000000001e-05,-1.505e-05,0.0,0 STARLINK-3361,1 51151U 22005AZ  22254.34765645 -.00001505  00000-0 -76471-4 0  9999,2 51151  53.2149 274.3432 0001848  46.8987 313.2159 15.08843904 36068,6917.868,95.437,541.012,538.455,0.0
51151.0,STARLINK-3361,PAYLOAD,2022-09-12 01:49:51,15.08852256,0.0001737,53.2151,271.0711,46.3627,313.7509,6.6017e-05,7.63e-06,0.0,0 STARLINK-3361,1 51151U 22005AZ  22255.07628911  .00000763  00000-0  66017-4 0  9992,2 51151  53.2151 271.0711 0001737  46.3627 313.7509 15.08852256 37287,6917.843000000003,95.437,540.91,538.506,0.0
51151.0,STARLINK-3361,PAYLOAD,2022-09-12 09:46:47,15.08838647,0.0001732,53.2153,269.5849,55.6952,304.4204,-3.4135e-05,-8.31e-06,0.0,0 STARLINK-3361,1 51151U 22005AZ  22255.40749534 -.00000831  00000-0 -34135-4 0  9998,2 51151  53.2153 269.5849 0001732  55.6952 304.4204 15.08838647 37335,6917.885,95.438,540.948,538.5509999999998,0.0
51151.0,STARLINK-3361,PAYLOAD,2022-09-12 11:22:10,15.08839983,0.0001693,53.2147,269.2872,53.3822,306.7326,-1.0757e-05,-4.59e-06,0.0,0 STARLINK-3361,1 51151U 22005AZ  22255.47373525 -.00000459  00000-0 -10757-4 0  9998,2 51151  53.2147 269.2872 0001693  53.3822 306.7326 15.08839983 36230,6917.88,95.438,540.9169999999998,538.5740000000002,0.0
51151.0,STARLINK-3361,PAYLOAD,2022-09-12 17:43:43,15.08840829,0.0001744,53.215,268.098,55.2142,304.9014,-9.9308e-06,-4.46e-06,0.0,0 STARLINK-3361,1 51151U 22005AZ  22255.73869378 -.00000446  00000-0 -99308-5 0  9999,2 51151  53.2150 268.0980 0001744  55.2142 304.9014 15.08840829 36273,6917.878000000002,95.438,540.9490000000002,538.536,0.0
51151.0,STARLINK-3361,PAYLOAD,2022-09-13 09:37:34,15.08848557,0.0001804,53.2152,265.1234,51.2867,308.8286,0.00022171,3.243e-05,0.0,0 STARLINK-3361,1 51151U 22005AZ  22256.40109130  .00003243  00000-0  22171-3 0  9995,2 51151  53.2152 265.1234 0001804  51.2867 308.8286 15.08848557 36373,6917.854,95.437,540.967,538.471,0.0
51151.0,STARLINK-3361,PAYLOAD,2022-09-14 04:42:12,15.08833983,0.0001823,53.2153,261.5551,57.8683,302.2486,3.0307e-05,1.94e-06,0.0,0 STARLINK-3361,1 51151U 22005AZ  22257.19597809  .00000194  00000-0  30307-4 0  9999,2 51151  53.2153 261.5551 0001823  57.8683 302.2486 15.08833983 37609,6917.899,95.438,541.025,538.503,0.0
51151.0,STARLINK-3361,PAYLOAD,2022-09-14 09:28:21,15.08838982,0.0001896999999999,53.2155,260.663,52.5356,307.5809,2.885e-05,1.71e-06,0.0,0 STARLINK-3361,1 51151U 22005AZ  22257.39469740  .00000171  00000-0  28850-4 0  9998,2 51151  53.2155 260.6630 0001897  52.5356 307.5809 15.08838982 36520,6917.884,95.438,541.061,538.436,0.0
51151.0,STARLINK-3361,PAYLOAD,2022-09-14 19:00:40,15.08843467,0.0001873,53.2154,258.8788,54.1342,305.9823,0.00019031,2.742e-05,0.0,0 STARLINK-3361,1 51151U 22005AZ  22257.79213623  .00002742  00000-0  19031-3 0  9995,2 51151  53.2154 258.8788 0001873  54.1342 305.9823 15.08843467 36587,6917.87,95.437,541.031,538.439,0.0
51151.0,STARLINK-3361,PAYLOAD,2022-09-15 07:43:45,15.08838079,0.0001841999999999,53.2156,256.5001,51.7475,308.3683,1.274e-05,-8.5e-07,0.0,0 STARLINK-3361,1 51151U 22005AZ  22258.32205888 -.00000085  00000-0  12740-4 0  9999,2 51151  53.2156 256.5001 0001842  51.7475 308.3683 15.08838079 36661,6917.886,95.438,541.026,538.477,0.0
51151.0,STARLINK-3361,PAYLOAD,2022-09-15 17:16:04,15.08838614,0.0001857,53.2157,254.7159,54.5708,305.5457,5.3921e-05,5.700000000000001e-06,0.0,0 STARLINK-3361,1 51151U 22005AZ  22258.71949984  .00000570  00000-0  53921-4 0  9998,2 51151  53.2157 254.7159 0001857  54.5708 305.5457 15.08838614 36722,6917.885,95.438,541.034,538.465,0.0
51151.0,STARLINK-3361,PAYLOAD,2022-09-16 07:34:32,15.08845968,0.0001761999999999,53.2162,252.0391,53.6199,306.4956,0.00014505,2.022e-05,0.0,0 STARLINK-3361,1 51151U 22005AZ  22259.31565466  .00002022  00000-0  14505-3 0  9992,2 51151  53.2162 252.0391 0001762  53.6199 306.4956 15.08845968 36810,6917.861999999999,95.437,540.946,538.508,0.0
51151.0,STARLINK-3361,PAYLOAD,2022-09-17 04:14:33,15.08840777,0.0001839,53.2162,248.1738,53.9095,306.2068,-1.4822e-05,-5.24e-06,0.0,0 STARLINK-3361,1 51151U 22005AZ  22260.17677910 -.00000524  00000-0 -14822-4 0  9996,2 51151  53.2162 248.1738 0001839  53.9095 306.2068 15.08840777 38057,6917.878000000002,95.438,541.015,538.471,0.0
51151.0,STARLINK-3361,PAYLOAD,2022-09-17 09:00:43,15.08837071,0.0001821999999999,53.2161,247.2815,54.8517,305.2646,6.212399999999999e-05,7.01e-06,0.0,0 STARLINK-3361,1 51151U 22005AZ  22260.37549924  .00000701  00000-0  62124-4 0  9994,2 51151  53.2161 247.2815 0001822  54.8517 305.2646 15.08837071 36976,6917.889,95.438,541.015,538.494,0.0
51151.0,STARLINK-3361,PAYLOAD,2022-09-18 05:40:44,15.08834642,0.0001809,53.2162,243.4155,54.1873,305.9287,-4.0334e-05,-9.3e-06,0.0,0 STARLINK-3361,1 51151U 22005AZ  22261.23662431 -.00000930  00000-0 -40334-4 0  9994,2 51151  53.2162 243.4155 0001809  54.1873 305.9287 15.08834642 38213,6917.897,95.438,541.013,538.51,0.0
